     3.00           N: GNSS NAV DATA    E: Galileo          RINEX VERSION / TYPE
PREC2NAV                                20121215 063317 UTC PGM / RUN BY / DATE 
SOURCE: data/tum%W%D.sp3                                    COMMENT             
                                                            END OF HEADER       
E12 2012 11 15 16  0  0  .515137923200E-03  .850278923077E-10  .000000000000E+00
      .900000000000E+01  .157824975650E+02  .351881324246E-08 -.914420627783E+00
      .853641012273E-06  .717647920596E-04  .931084288535E-05  .544060025449E+04
      .403200000000E+06  .285542412770E-07  .119240744237E+01  .723104677240E-07
      .956160736363E+00  .137935858503E+03 -.305009036843E+01 -.556943823889E-08
      .879914255495E-09  .000000000000E+00  .171400000000E+04  .000000000000E+00
      .240000000000E+01  .000000000000E+00  .000000000000E+00  .000000000000E+00
      .406800000000E+06  .000000000000E+00
E11 2012 11 15 18  0  0  .469034360760E-03  .386048187179E-09  .000000000000E+00
      .100000000000E+02  .162978131868E+02  .346354046501E-08  .919699805512E+00
      .851419675648E-06  .125668684884E-03  .950155927767E-05  .544060277630E+04
      .410400000000E+06  .222608315325E-07  .119239319888E+01  .674229410479E-07
      .956155136612E+00  .132936037955E+03  .158765519513E+01 -.554781599543E-08
      .899445080716E-09  .000000000000E+00  .171400000000E+04  .000000000000E+00
      .240000000000E+01  .000000000000E+00  .000000000000E+00  .000000000000E+00
      .414000000000E+06  .000000000000E+00
E12 2012 11 15 18  0  0  .515750286520E-03  .850682846154E-10  .000000000000E+00
      .100000000000E+02  .266481194615E+02  .356547681375E-08 -.359220673979E-01
      .134443833633E-05  .702125991559E-04  .970247717672E-05  .544059645201E+04
      .410400000000E+06 -.320146536533E-08  .119236733241E+01  .768213143720E-07
      .956167044212E+00  .130202109534E+03 -.303595391213E+01 -.558149604634E-08
      .884166151306E-09  .000000000000E+00  .171400000000E+04  .000000000000E+00
      .240000000000E+01  .000000000000E+00  .000000000000E+00  .000000000000E+00
      .414000000000E+06  .000000000000E+00
E12 2012 11 15 20  0  0  .516362810800E-03  .850858769231E-10  .000000000000E+00
      .110000000000E+02  .406380783191E+02  .346801285773E-08  .843962335289E+00
      .179272995039E-05  .723065966587E-04  .943265336719E-05  .544060117341E+04
      .417600000000E+06 -.344606292547E-07  .119232691014E+01  .561522720365E-07
      .956173278789E+00  .138358328255E+03 -.302320386317E+01 -.561182379561E-08
      .888800976815E-09  .000000000000E+00  .171400000000E+04  .000000000000E+00
      .240000000000E+01  .000000000000E+00  .000000000000E+00  .000000000000E+00
      .421200000000E+06  .000000000000E+00
E11 2012 11 15 22  0  0  .474590637400E-03  .388237617949E-09  .000000000000E+00
      .120000000000E+02  .398011749866E+02  .338381835889E-08  .269711668296E+01
      .175947561554E-05  .123797006547E-03  .956553465171E-05  .544060532592E+04
      .424800000000E+06 -.577939168926E-07  .119231302498E+01  .709868920791E-07
      .956167876713E+00  .134313429978E+03 -.468768241893E+01 -.558037527283E-08
      .883231079801E-09  .000000000000E+00  .171400000000E+04  .000000000000E+00
      .240000000000E+01  .000000000000E+00  .000000000000E+00  .000000000000E+00
      .428400000000E+06  .000000000000E+00
E12 2012 11 15 22  0  0  .516975690000E-03  .851406820513E-10  .000000000000E+00
      .120000000000E+02  .406056623882E+02  .339323004401E-08  .173449272007E+01
      .172565422005E-05  .723281318929E-04  .924650805889E-05  .544060150937E+04
      .424800000000E+06 -.700348921560E-07  .119228702446E+01 -.168143774381E-07
      .956179488140E+00  .137457911677E+03 -.302110199362E+01 -.559881888177E-08
      .821406472867E-09  .000000000000E+00  .171400000000E+04  .000000000000E+00
      .240000000000E+01  .000000000000E+00  .000000000000E+00  .000000000000E+00
      .428400000000E+06  .000000000000E+00
E11 2012 11 16  0  0  0  .477373355200E-03  .385944905128E-09  .000000000000E+00
      .130000000000E+02  .371381373844E+02  .336378908765E-08 -.269198704474E+01
      .165301467309E-05  .123562222474E-03  .947821826703E-05  .544060583000E+04
      .432000000000E+06  .649245179015E-07  .119227401797E+01 -.612388798697E-07
      .956173717837E+00  .132974888416E+03  .159405078046E+01 -.562508037136E-08
      .715248298441E-09  .000000000000E+00  .171400000000E+04  .000000000000E+00
      .240000000000E+01  .000000000000E+00  .000000000000E+00  .000000000000E+00
      .435600000000E+06  .000000000000E+00
E12 2012 11 16  0  0  0  .517588078440E-03  .849121564103E-10  .000000000000E+00
      .130000000000E+02  .220262744825E+02  .323062854047E-08  .259685319069E+01
      .113580230554E-05  .707847599154E-04  .926605421637E-05  .544060703326E+04
      .432000000000E+06 -.337381911758E-07  .119224660007E+01 -.899889545007E-07
      .956185552133E+00  .136321484739E+03 -.299083203554E+01 -.555578341617E-08
      .827675113413E-09  .000000000000E+00  .171400000000E+04  .000000000000E+00
      .240000000000E+01  .000000000000E+00  .000000000000E+00  .000000000000E+00
      .435600000000E+06  .000000000000E+00
